[{"OBJECT_NAME":"STARLINK-32753","OBJECT_ID":"2024-254V","EPOCH":"2026-01-07T16:01:04.171296","MEAN_MOTION":15.27569241,"ECCENTRICITY":0.0001111,"INCLINATION":43.0019,"RA_OF_ASC_NODE":0.7142,"ARG_OF_PERICENTER":271.3448,"MEAN_ANOMALY":88.7276,"EPHEMERIS_TYPE":0,"CLASSIFICATION_TYPE":"U","NORAD_CAT_ID":62481,"ELEMENT_SET_NO":999,"REV_AT_EPOCH":5832,"BSTAR":0.00071088,"MEAN_MOTION_DOT":0.00019345,"MEAN_MOTION_DDOT":0},{"OBJECT_NAME":"STARLINK-32699","OBJECT_ID":"2024-254W","EPOCH":"2026-01-07T16:04:04.327392","MEAN_MOTION":15.27569971,"ECCENTRICITY":0.0001305,"INCLINATION":43.0007,"RA_OF_ASC_NODE":4.1941,"ARG_OF_PERICENTER":270.8433,"MEAN_ANOMALY":89.2269,"EPHEMERIS_TYPE":0,"CLASSIFICATION_TYPE":"U","NORAD_CAT_ID":62482,"ELEMENT_SET_NO":999,"REV_AT_EPOCH":5813,"BSTAR":0.00075559,"MEAN_MOTION_DOT":0.00020582,"MEAN_MOTION_DDOT":0},{"OBJECT_NAME":"STARLINK-32713","OBJECT_ID":"2025-003A","EPOCH":"2026-01-07T10:35:14.794080","MEAN_MOTION":15.2756545,"ECCENTRICITY":0.0001637,"INCLINATION":42.9989,"RA_OF_ASC_NODE":274.9417,"ARG_OF_PERICENTER":267.2262,"MEAN_ANOMALY":92.8402,"EPHEMERIS_TYPE":0,"CLASSIFICATION_TYPE":"U","NORAD_CAT_ID":62487,"ELEMENT_SET_NO":999,"REV_AT_EPOCH":5728,"BSTAR":0.0011563,"MEAN_MOTION_DOT":0.00031681,"MEAN_MOTION_DDOT":0},{"OBJECT_NAME":"STARLINK-32732","OBJECT_ID":"2025-003B","EPOCH":"2026-01-07T03:30:30.324384","MEAN_MOTION":15.27571093,"ECCENTRICITY":8.716e-5,"INCLINATION":43.0006,"RA_OF_ASC_NODE":276.1645,"ARG_OF_PERICENTER":286.6414,"MEAN_ANOMALY":73.4342,"EPHEMERIS_TYPE":0,"CLASSIFICATION_TYPE":"U","NORAD_CAT_ID":62488,"ELEMENT_SET_NO":999,"REV_AT_EPOCH":5714,"BSTAR":0.0010759425,"MEAN_MOTION_DOT":0.00029456,"MEAN_MOTION_DDOT":0},{"OBJECT_NAME":"STARLINK-32328","OBJECT_ID":"2025-003C","EPOCH":"2026-01-07T10:57:26.929152","MEAN_MOTION":15.27568492,"ECCENTRICITY":0.000134,"INCLINATION":43.0013,"RA_OF_ASC_NODE":275.0524,"ARG_OF_PERICENTER":265.0111,"MEAN_ANOMALY":95.0588,"EPHEMERIS_TYPE":0,"CLASSIFICATION_TYPE":"U","NORAD_CAT_ID":62489,"ELEMENT_SET_NO":999,"REV_AT_EPOCH":5730,"BSTAR":0.000912,"MEAN_MOTION_DOT":0.0002491,"MEAN_MOTION_DDOT":0},{"OBJECT_NAME":"STARLINK-32332","OBJECT_ID":"2025-003D","EPOCH":"2026-01-07T10:40:47.879040","MEAN_MOTION":15.27566418,"ECCENTRICITY":0.000133,"INCLINATION":42.9995,"RA_OF_ASC_NODE":274.9691,"ARG_OF_PERICENTER":268.2457,"MEAN_ANOMALY":91.8242,"EPHEMERIS_TYPE":0,"CLASSIFICATION_TYPE":"U","NORAD_CAT_ID":62490,"ELEMENT_SET_NO":999,"REV_AT_EPOCH":5728,"BSTAR":0.0010007,"MEAN_MOTION_DOT":0.00027367,"MEAN_MOTION_DDOT":0},{"OBJECT_NAME":"STARLINK-32717","OBJECT_ID":"2025-003E","EPOCH":"2026-01-07T10:13:02.373024","MEAN_MOTION":15.27562488,"ECCENTRICITY":0.0001553,"INCLINATION":42.9998,"RA_OF_ASC_NODE":274.8212,"ARG_OF_PERICENTER":283.7667,"MEAN_ANOMALY":76.3012,"EPHEMERIS_TYPE":0,"CLASSIFICATION_TYPE":"U","NORAD_CAT_ID":62491,"ELEMENT_SET_NO":999,"REV_AT_EPOCH":5730,"BSTAR":0.00088083,"MEAN_MOTION_DOT":0.00024043,"MEAN_MOTION_DDOT":0},{"OBJECT_NAME":"STARLINK-32757","OBJECT_ID":"2025-003F","EPOCH":"2026-01-07T10:50:01.495680","MEAN_MOTION":15.2757834,"ECCENTRICITY":0.0002034,"INCLINATION":43.0018,"RA_OF_ASC_NODE":275.0128,"ARG_OF_PERICENTER":274.9686,"MEAN_ANOMALY":85.0933,"EPHEMERIS_TYPE":0,"CLASSIFICATION_TYPE":"U","NORAD_CAT_ID":62492,"ELEMENT_SET_NO":999,"REV_AT_EPOCH":5718,"BSTAR":0.00074522,"MEAN_MOTION_DOT":0.00020301,"MEAN_MOTION_DDOT":0},{"OBJECT_NAME":"STARLINK-32731","OBJECT_ID":"2025-003G","EPOCH":"2026-01-07T11:08:31.828992","MEAN_MOTION":15.27575424,"ECCENTRICITY":7.11e-5,"INCLINATION":43.0001,"RA_OF_ASC_NODE":275.1123,"ARG_OF_PERICENTER":303.5975,"MEAN_ANOMALY":56.4809,"EPHEMERIS_TYPE":0,"CLASSIFICATION_TYPE":"U","NORAD_CAT_ID":62493,"ELEMENT_SET_NO":999,"REV_AT_EPOCH":5730,"BSTAR":0.0010224,"MEAN_MOTION_DOT":0.00027976,"MEAN_MOTION_DDOT":0},{"OBJECT_NAME":"STARLINK-32694","OBJECT_ID":"2025-003H","EPOCH":"2026-01-07T02:07:26.851872","MEAN_MOTION":15.27555888,"ECCENTRICITY":0.00012373,"INCLINATION":42.9982,"RA_OF_ASC_NODE":276.5892,"ARG_OF_PERICENTER":303.223,"MEAN_ANOMALY":56.8503,"EPHEMERIS_TYPE":0,"CLASSIFICATION_TYPE":"U","NORAD_CAT_ID":62494,"ELEMENT_SET_NO":999,"REV_AT_EPOCH":5725,"BSTAR":0.0010514016,"MEAN_MOTION_DOT":0.00028762,"MEAN_MOTION_DDOT":0},{"OBJECT_NAME":"STARLINK-32708","OBJECT_ID":"2025-003J","EPOCH":"2026-01-07T10:44:29.881248","MEAN_MOTION":15.27570698,"ECCENTRICITY":0.0001006,"INCLINATION":42.9985,"RA_OF_ASC_NODE":274.9865,"ARG_OF_PERICENTER":284.8792,"MEAN_ANOMALY":75.1948,"EPHEMERIS_TYPE":0,"CLASSIFICATION_TYPE":"U","NORAD_CAT_ID":62495,"ELEMENT_SET_NO":999,"REV_AT_EPOCH":5718,"BSTAR":0.0011132,"MEAN_MOTION_DOT":0.00030489,"MEAN_MOTION_DDOT":0},{"OBJECT_NAME":"STARLINK-32718","OBJECT_ID":"2025-003K","EPOCH":"2026-01-07T03:36:03.173472","MEAN_MOTION":15.27571855,"ECCENTRICITY":0.00014558,"INCLINATION":42.9994,"RA_OF_ASC_NODE":276.1963,"ARG_OF_PERICENTER":254.3669,"MEAN_ANOMALY":105.7022,"EPHEMERIS_TYPE":0,"CLASSIFICATION_TYPE":"U","NORAD_CAT_ID":62496,"ELEMENT_SET_NO":999,"REV_AT_EPOCH":5714,"BSTAR":0.0010321776,"MEAN_MOTION_DOT":0.00028243,"MEAN_MOTION_DDOT":0},{"OBJECT_NAME":"STARLINK-32729","OBJECT_ID":"2025-003L","EPOCH":"2026-01-07T12:00:01.999296","MEAN_MOTION":15.27581963,"ECCENTRICITY":0.0001506,"INCLINATION":42.9994,"RA_OF_ASC_NODE":274.3101,"ARG_OF_PERICENTER":265.2647,"MEAN_ANOMALY":179.2768,"EPHEMERIS_TYPE":0,"CLASSIFICATION_TYPE":"U","NORAD_CAT_ID":62497,"ELEMENT_SET_NO":999,"REV_AT_EPOCH":579,"BSTAR":0.00016699,"MEAN_MOTION_DOT":4.336e-5,"MEAN_MOTION_DDOT":0},{"OBJECT_NAME":"STARLINK-32739","OBJECT_ID":"2025-003M","EPOCH":"2026-01-07T10:25:59.341440","MEAN_MOTION":15.27565258,"ECCENTRICITY":0.0001164,"INCLINATION":42.999,"RA_OF_ASC_NODE":274.884,"ARG_OF_PERICENTER":276.7136,"MEAN_ANOMALY":83.3583,"EPHEMERIS_TYPE":0,"CLASSIFICATION_TYPE":"U","NORAD_CAT_ID":62498,"ELEMENT_SET_NO":999,"REV_AT_EPOCH":5725,"BSTAR":0.0010092,"MEAN_MOTION_DOT":0.000276,"MEAN_MOTION_DDOT":0},{"OBJECT_NAME":"STARLINK-32714","OBJECT_ID":"2025-003N","EPOCH":"2026-01-07T11:06:41.851296","MEAN_MOTION":15.27573466,"ECCENTRICITY":0.0001487,"INCLINATION":43.0014,"RA_OF_ASC_NODE":275.1037,"ARG_OF_PERICENTER":292.3152,"MEAN_ANOMALY":67.7542,"EPHEMERIS_TYPE":0,"CLASSIFICATION_TYPE":"U","NORAD_CAT_ID":62499,"ELEMENT_SET_NO":999,"REV_AT_EPOCH":5730,"BSTAR":0.0010102,"MEAN_MOTION_DOT":0.00027636,"MEAN_MOTION_DDOT":0},{"OBJECT_NAME":"STARLINK-32685","OBJECT_ID":"2025-003P","EPOCH":"2026-01-07T10:55:35.679648","MEAN_MOTION":15.2756936,"ECCENTRICITY":0.0001294,"INCLINATION":43.0006,"RA_OF_ASC_NODE":275.0447,"ARG_OF_PERICENTER":257.6181,"MEAN_ANOMALY":102.4526,"EPHEMERIS_TYPE":0,"CLASSIFICATION_TYPE":"U","NORAD_CAT_ID":62500,"ELEMENT_SET_NO":999,"REV_AT_EPOCH":5725,"BSTAR":0.00094665,"MEAN_MOTION_DOT":0.00025871,"MEAN_MOTION_DDOT":0}]
