STARLINK-32753          
1 62481U 24254V   26007.66740939  .00019345  00000+0  71088-3 0  9995
2 62481  43.0019   0.7142 0001111 271.3448  88.7276 15.27569241 58325
STARLINK-32699          
1 62482U 24254W   26007.66949453  .00020582  00000+0  75559-3 0  9990
2 62482  43.0007   4.1941 0001305 270.8433  89.2269 15.27569971 58138
STARLINK-32713          
1 62487U 25003A   26007.44114345  .00031681  00000+0  11563-2 0  9994
2 62487  42.9989 274.9417 0001637 267.2262  92.8402 15.27565450 57285
STARLINK-32732          
1 62488U 25003B   26007.14618431  .00029456  00000+0  10759-2 0  9990
2 62488  43.0006 276.1645 0000871 286.6414  73.4342 15.27571093 57141
STARLINK-32328          
1 62489U 25003C   26007.45656168  .00024910  00000+0  91200-3 0  9995
2 62489  43.0013 275.0524 0001340 265.0111  95.0588 15.27568492 57300
STARLINK-32332          
1 62490U 25003D   26007.44499860  .00027367  00000+0  10007-2 0  9994
2 62490  42.9995 274.9691 0001330 268.2457  91.8242 15.27566418 57283
STARLINK-32717          
1 62491U 25003E   26007.42572191  .00024043  00000+0  88083-3 0  9990
2 62491  42.9998 274.8212 0001553 283.7667  76.3012 15.27562488 57306
STARLINK-32757          
1 62492U 25003F   26007.45140620  .00020301  00000+0  74522-3 0  9998
2 62492  43.0018 275.0128 0002034 274.9686  85.0933 15.27578340 57188
STARLINK-32731          
1 62493U 25003G   26007.46425728  .00027976  00000+0  10224-2 0  9998
2 62493  43.0001 275.1123 0000711 303.5975  56.4809 15.27575424 57305
STARLINK-32694          
1 62494U 25003H   26007.08850523  .00028762  00000+0  10514-2 0  9998
2 62494  42.9982 276.5892 0001237 303.2230  56.8503 15.27555888 57256
STARLINK-32708          
1 62495U 25003J   26007.44756807  .00030489  00000+0  11132-2 0  9995
2 62495  42.9985 274.9865 0001006 284.8792  75.1948 15.27570698 57188
STARLINK-32718          
1 62496U 25003K   26007.15003673  .00028243  00000+0  10322-2 0  9995
2 62496  42.9994 276.1963 0001455 254.3669 105.7022 15.27571855 57140
STARLINK-32729          
1 62497U 25003L   26007.50002314  .00004336  00000+0  16699-3 0  9997
2 62497  42.9994 274.3101 0001506 265.2647 179.2768 15.27581963  5797
STARLINK-32739          
1 62498U 25003M   26007.43471460  .00027600  00000+0  10092-2 0  9991
2 62498  42.9990 274.8840 0001164 276.7136  83.3583 15.27565258 57256
STARLINK-32714          
1 62499U 25003N   26007.46298439  .00027636  00000+0  10102-2 0  9999
2 62499  43.0014 275.1037 0001487 292.3152  67.7542 15.27573466 57305
STARLINK-32685          
1 62500U 25003P   26007.45527407  .00025871  00000+0  94665-3 0  9997
2 62500  43.0006 275.0447 0001294 257.6181 102.4526 15.27569360 57256
